{
  "id": "157",
  "type": "Feature",
  "properties": {
    "name": "월계1동"
  },
  "geometry": {
    "type": "Polygon",
    "coordinates": [
      [
        [
          127.06194,
          37.62339
        ],
        [
          127.06231,
          37.62335
        ],
        [
          127.06581,
          37.61497
        ],
        [
          127.06325,
          37.61427
        ],
        [
          127.06145,
          37.61464
        ],
        [
          127.0607,
          37.61564
        ],
        [
          127.05442,
          37.61978
        ],
        [
          127.04974,
          37.62427
        ],
        [
          127.05904,
          37.6302
        ],
        [
          127.06194,
          37.62339
        ]
      ]
    ]
  }
}
